CZ-4B R/B               
1 28059U 03049C   18250.72403800 -.00000024  00000-0  62177-5 0  9995
2 28059  98.5102 149.2695 0049449 322.4800  95.6113 14.52535663788655
CZ-2C R/B               
1 28222U 04012C   18250.87702841  .00000162  00000-0  13781-4 0  9999
2 28222  97.5828 205.8612 0049325  91.0405 326.6219 15.09804546788119
SL-16 R/B               
1 28353U 04021B   18251.37852683  .00000303  00000-0  18352-3 0  9995
2 28353  70.9994 218.5122 0006956 247.2480 112.7908 14.14212731735521
CZ-2C R/B               
1 28480U 04046B   18250.80910260 -.00000020  00000-0  81824-5 0  9999
2 28480  98.1710 322.6842 0141559 343.7326 120.6811 14.25680698717991
ARIANE 5 R/B            
1 28499U 04049H   18251.33155602  .00000015  00000-0  93337-5 0  9997
2 28499  98.0585 341.3034 0091735 207.2438 198.9602 14.79918517740275
CZ-2D R/B               
1 28738U 05024B   18251.14655301  .00000133  00000-0  11570-4 0  9996
2 28738  97.4481 282.9142 0010512 260.5129  99.4913 15.11610234723477
SUZAKU (ASTRO-EII)      
1 28773U 05025A   18251.22558732  .00000689  00000-0  29972-4 0  9996
2 28773  31.3822 268.8349 0004577 168.6242 191.4509 15.16675018725418
ALOS (DAICHI)           
1 28931U 06002A   18251.49198993  .00000114  00000-0  31004-4 0  9998
2 28931  97.8170 260.6756 0001745  25.8600 334.2687 14.62525668672987
H-2A R/B                
1 28932U 06002B   18250.86714894  .00000321  00000-0  36166-4 0  9997
2 28932  98.2384 197.7174 0087993 284.9131 135.9560 14.91782401684543
AKARI (ASTRO-F)         
1 28939U 06005A   18251.49093620  .00002077  00000-0  61750-4 0  9991
2 28939  98.1967 145.5770 0102200  67.9640 293.2417 15.31141861681665
RESURS-DK 1             
1 29228U 06021A   18251.55694584  .00000012  00000-0  82995-5 0  9996
2 29228  69.9363  37.1376 0004954 336.9803  23.1135 15.02352793675439
GENESIS 1               
1 29252U 06029A   18251.19267199  .00000097  00000-0  15195-4 0  9999
2 29252  64.5028 261.5149 0046752 279.7072  79.8772 15.17405928669792
CZ-4B R/B               
1 29507U 06046C   18251.15064694 -.00000685  00000-0 -48186-4 0  9993
2 29507  97.7795 264.0309 0050804 176.4958 183.6632 15.00325826648201
CZ-2C R/B               
1 31114U 07010B   18251.22082586 -.00000019  00000-0  10156-4 0  9996
2 31114  98.3489 134.4089 0059742 355.3691   4.6926 14.19277211591064
COSMO-SKYMED 1          
1 31598U 07023A   18251.57890814 -.00000185  00000-0 -16620-4 0  9992
2 31598  97.8900  73.9689 0001249  80.2016 279.9330 14.82151645608864
GENESIS 2               
1 31789U 07028A   18251.19432045  .00000064  00000-0  13719-4 0  9995
2 31789  64.5036 301.1371 0026791 319.7725  40.1414 15.16640786616831
COSMOS 2428             
1 31792U 07029A   18251.28724159 -.00000043  00000-0  25102-5 0  9998
2 31792  70.9683 192.4237 0009635 302.7939  57.2254 14.12559760577331
SL-16 R/B               
1 31793U 07029B   18251.20064493  .00000243  00000-0  15171-3 0  9993
2 31793  70.9757 168.0872 0002106 256.2573 253.4878 14.14402351578069
KORONAS-FOTON           
1 33504U 09003A   18251.29148597 -.00000081  00000-0 -60162-5 0  9990
2 33504  82.4438 147.5536 0019489   5.9390 354.2069 15.15231047529323
H-2A R/B                
1 38341U 12025E   18251.24282552  .00000071  00000-0  15851-4 0  9998
2 38341  98.4257 357.8214 0056359 155.5200 204.8708 14.83789521341322
CUSAT 2 & FALCON 9 R/B  
1 39271U 13055G   18250.95743005  .00004809  00000-0  12103-3 0  9996
2 39271  80.9660 241.4609 0610537 312.2269  42.8609 14.42486823257067
ALOS-2                  
1 39766U 14029A   18251.52078053 -.00000367  00000-0 -42244-4 0  9992
2 39766  97.9221 347.4132 0001489  88.4342 271.7056 14.79466958231898
SL-27 R/B               
1 40354U 14084B   18251.51916226  .00000595  00000-0  16280-4 0  9992
2 40354  74.7375 287.5512 0037255  83.2208 277.3241 15.39201193208815
ASTRO-H (HITOMI)        
1 41337U 16012A   18251.17735984  .00000232  00000-0  11920-4 0  9993
2 41337  31.0049 159.5416 0012402 146.3251 213.8174 14.98497401140175
TIANGONG-2              
1 41765U 16057A   18251.33399597  .00003426  00000-0  46819-4 0  9994
2 41765  42.7833 205.9608 0005837 121.6016   7.5480 15.59397181113000
SHENZHOU-11 MODULE      
1 41868U 16061G   18250.82682580  .00008674  00000-0  63255-4 0  9996
2 41868  42.7932 170.6072 0002791 251.2851 209.0228 15.73584935103290
